[{"OBJECT_NAME":"ONEWEB-0687","OBJECT_ID":"2024-188B","EPOCH":"2026-02-19T23:38:53.064960","MEAN_MOTION":13.17648448,"ECCENTRICITY":0.0002298,"INCLINATION":87.9108,"RA_OF_ASC_NODE":29.1649,"ARG_OF_PERICENTER":74.4424,"MEAN_ANOMALY":285.6961,"EPHEMERIS_TYPE":0,"CLASSIFICATION_TYPE":"U","NORAD_CAT_ID":61595,"ELEMENT_SET_NO":999,"REV_AT_EPOCH":7046,"BSTAR":-0.00011366,"MEAN_MOTION_DOT":-3.1e-7,"MEAN_MOTION_DDOT":0},{"OBJECT_NAME":"ONEWEB-0688","OBJECT_ID":"2024-188C","EPOCH":"2026-02-19T20:41:30.139296","MEAN_MOTION":13.17649221,"ECCENTRICITY":0.0002132,"INCLINATION":87.9107,"RA_OF_ASC_NODE":29.1884,"ARG_OF_PERICENTER":48.0195,"MEAN_ANOMALY":312.1118,"EPHEMERIS_TYPE":0,"CLASSIFICATION_TYPE":"U","NORAD_CAT_ID":61596,"ELEMENT_SET_NO":999,"REV_AT_EPOCH":7044,"BSTAR":8.2132e-6,"MEAN_MOTION_DOT":1.6e-7,"MEAN_MOTION_DDOT":0},{"OBJECT_NAME":"ONEWEB-0689","OBJECT_ID":"2024-188D","EPOCH":"2026-02-19T23:58:27.586560","MEAN_MOTION":13.11416911,"ECCENTRICITY":0.00022021,"INCLINATION":87.8844,"RA_OF_ASC_NODE":44.3426,"ARG_OF_PERICENTER":85.4606,"MEAN_ANOMALY":274.6773,"EPHEMERIS_TYPE":0,"CLASSIFICATION_TYPE":"U","NORAD_CAT_ID":61597,"ELEMENT_SET_NO":999,"REV_AT_EPOCH":6909,"BSTAR":-0.0012851975,"MEAN_MOTION_DOT":-4.43e-6,"MEAN_MOTION_DDOT":0},{"OBJECT_NAME":"ONEWEB-0690","OBJECT_ID":"2024-188E","EPOCH":"2026-02-20T00:13:06.316896","MEAN_MOTION":13.11418735,"ECCENTRICITY":0.00012151,"INCLINATION":87.8843,"RA_OF_ASC_NODE":44.3607,"ARG_OF_PERICENTER":97.2162,"MEAN_ANOMALY":262.9104,"EPHEMERIS_TYPE":0,"CLASSIFICATION_TYPE":"U","NORAD_CAT_ID":61598,"ELEMENT_SET_NO":999,"REV_AT_EPOCH":6927,"BSTAR":-0.0015173574,"MEAN_MOTION_DOT":-5.25e-6,"MEAN_MOTION_DDOT":0},{"OBJECT_NAME":"ONEWEB-0691","OBJECT_ID":"2024-188F","EPOCH":"2026-02-20T00:05:46.945248","MEAN_MOTION":13.11418001,"ECCENTRICITY":0.00019228,"INCLINATION":87.8848,"RA_OF_ASC_NODE":44.2613,"ARG_OF_PERICENTER":73.1966,"MEAN_ANOMALY":286.9373,"EPHEMERIS_TYPE":0,"CLASSIFICATION_TYPE":"U","NORAD_CAT_ID":61599,"ELEMENT_SET_NO":999,"REV_AT_EPOCH":6912,"BSTAR":-0.0015522536,"MEAN_MOTION_DOT":-5.37e-6,"MEAN_MOTION_DDOT":0},{"OBJECT_NAME":"ONEWEB-0692","OBJECT_ID":"2024-188G","EPOCH":"2026-02-20T00:35:05.728704","MEAN_MOTION":13.11419391,"ECCENTRICITY":0.00025156,"INCLINATION":87.8834,"RA_OF_ASC_NODE":44.3926,"ARG_OF_PERICENTER":104.007,"MEAN_ANOMALY":256.1338,"EPHEMERIS_TYPE":0,"CLASSIFICATION_TYPE":"U","NORAD_CAT_ID":61600,"ELEMENT_SET_NO":999,"REV_AT_EPOCH":6911,"BSTAR":-0.00012244349,"MEAN_MOTION_DOT":-3.1e-7,"MEAN_MOTION_DDOT":0},{"OBJECT_NAME":"ONEWEB-0693","OBJECT_ID":"2024-188H","EPOCH":"2026-02-19T20:58:30.796320","MEAN_MOTION":13.1765024,"ECCENTRICITY":0.0001055,"INCLINATION":87.9108,"RA_OF_ASC_NODE":29.2079,"ARG_OF_PERICENTER":84.602,"MEAN_ANOMALY":275.5232,"EPHEMERIS_TYPE":0,"CLASSIFICATION_TYPE":"U","NORAD_CAT_ID":61601,"ELEMENT_SET_NO":999,"REV_AT_EPOCH":7043,"BSTAR":-1.2634e-6,"MEAN_MOTION_DOT":1.2e-7,"MEAN_MOTION_DDOT":0},{"OBJECT_NAME":"ONEWEB-0695","OBJECT_ID":"2024-188J","EPOCH":"2026-02-20T00:00:55.518048","MEAN_MOTION":13.11415228,"ECCENTRICITY":0.00023705,"INCLINATION":87.8829,"RA_OF_ASC_NODE":44.3882,"ARG_OF_PERICENTER":90.4552,"MEAN_ANOMALY":269.6848,"EPHEMERIS_TYPE":0,"CLASSIFICATION_TYPE":"U","NORAD_CAT_ID":61602,"ELEMENT_SET_NO":999,"REV_AT_EPOCH":6910,"BSTAR":-0.0015671588,"MEAN_MOTION_DOT":-5.43e-6,"MEAN_MOTION_DDOT":0},{"OBJECT_NAME":"ONEWEB-0697","OBJECT_ID":"2024-188K","EPOCH":"2026-02-20T00:47:18.820608","MEAN_MOTION":13.11418333,"ECCENTRICITY":0.00023394,"INCLINATION":87.8831,"RA_OF_ASC_NODE":44.3712,"ARG_OF_PERICENTER":103.4405,"MEAN_ANOMALY":256.6984,"EPHEMERIS_TYPE":0,"CLASSIFICATION_TYPE":"U","NORAD_CAT_ID":61603,"ELEMENT_SET_NO":999,"REV_AT_EPOCH":6909,"BSTAR":0.00092115163,"MEAN_MOTION_DOT":3.39e-6,"MEAN_MOTION_DDOT":0},{"OBJECT_NAME":"ONEWEB-0698","OBJECT_ID":"2024-188L","EPOCH":"2026-02-20T00:15:33.234048","MEAN_MOTION":13.11418743,"ECCENTRICITY":0.00018896,"INCLINATION":87.8831,"RA_OF_ASC_NODE":44.3915,"ARG_OF_PERICENTER":122.8949,"MEAN_ANOMALY":237.2361,"EPHEMERIS_TYPE":0,"CLASSIFICATION_TYPE":"U","NORAD_CAT_ID":61604,"ELEMENT_SET_NO":999,"REV_AT_EPOCH":6911,"BSTAR":-0.001320037,"MEAN_MOTION_DOT":-4.55e-6,"MEAN_MOTION_DDOT":0},{"OBJECT_NAME":"ONEWEB-0699","OBJECT_ID":"2024-188M","EPOCH":"2026-02-20T01:59:41.872992","MEAN_MOTION":13.10372175,"ECCENTRICITY":0.00022076,"INCLINATION":87.8763,"RA_OF_ASC_NODE":59.5895,"ARG_OF_PERICENTER":106.0987,"MEAN_ANOMALY":254.0384,"EPHEMERIS_TYPE":0,"CLASSIFICATION_TYPE":"U","NORAD_CAT_ID":61605,"ELEMENT_SET_NO":999,"REV_AT_EPOCH":6797,"BSTAR":0.0017111993,"MEAN_MOTION_DOT":6.1e-6,"MEAN_MOTION_DDOT":0},{"OBJECT_NAME":"ONEWEB-0700","OBJECT_ID":"2024-188N","EPOCH":"2026-02-20T00:12:07.593408","MEAN_MOTION":13.10372233,"ECCENTRICITY":0.00024947,"INCLINATION":87.8777,"RA_OF_ASC_NODE":59.4966,"ARG_OF_PERICENTER":98.3095,"MEAN_ANOMALY":261.8315,"EPHEMERIS_TYPE":0,"CLASSIFICATION_TYPE":"U","NORAD_CAT_ID":61606,"ELEMENT_SET_NO":999,"REV_AT_EPOCH":6795,"BSTAR":0.0019145178,"MEAN_MOTION_DOT":6.81e-6,"MEAN_MOTION_DDOT":0},{"OBJECT_NAME":"ONEWEB-0701","OBJECT_ID":"2024-188P","EPOCH":"2026-02-20T00:36:00.666144","MEAN_MOTION":13.10368664,"ECCENTRICITY":0.00023717,"INCLINATION":87.8757,"RA_OF_ASC_NODE":59.6011,"ARG_OF_PERICENTER":108.3767,"MEAN_ANOMALY":251.7619,"EPHEMERIS_TYPE":0,"CLASSIFICATION_TYPE":"U","NORAD_CAT_ID":61607,"ELEMENT_SET_NO":999,"REV_AT_EPOCH":6796,"BSTAR":0.00039275948,"MEAN_MOTION_DOT":1.5e-6,"MEAN_MOTION_DDOT":0},{"OBJECT_NAME":"ONEWEB-0702","OBJECT_ID":"2024-188Q","EPOCH":"2026-02-19T23:31:37.428384","MEAN_MOTION":13.11414028,"ECCENTRICITY":0.0002684,"INCLINATION":87.8845,"RA_OF_ASC_NODE":44.2823,"ARG_OF_PERICENTER":102.1168,"MEAN_ANOMALY":258.0261,"EPHEMERIS_TYPE":0,"CLASSIFICATION_TYPE":"U","NORAD_CAT_ID":61608,"ELEMENT_SET_NO":999,"REV_AT_EPOCH":6912,"BSTAR":0.0005118,"MEAN_MOTION_DOT":1.94e-6,"MEAN_MOTION_DDOT":0},{"OBJECT_NAME":"ONEWEB-0704","OBJECT_ID":"2024-188R","EPOCH":"2026-02-20T00:19:19.146720","MEAN_MOTION":13.10371799,"ECCENTRICITY":0.00027205,"INCLINATION":87.8774,"RA_OF_ASC_NODE":59.5774,"ARG_OF_PERICENTER":101.6149,"MEAN_ANOMALY":258.5284,"EPHEMERIS_TYPE":0,"CLASSIFICATION_TYPE":"U","NORAD_CAT_ID":61609,"ELEMENT_SET_NO":999,"REV_AT_EPOCH":6794,"BSTAR":0.0017121345,"MEAN_MOTION_DOT":6.1e-6,"MEAN_MOTION_DDOT":0},{"OBJECT_NAME":"ONEWEB-0705","OBJECT_ID":"2024-188S","EPOCH":"2026-02-20T02:16:25.525632","MEAN_MOTION":13.10369414,"ECCENTRICITY":0.00029474,"INCLINATION":87.8759,"RA_OF_ASC_NODE":59.5761,"ARG_OF_PERICENTER":80.8788,"MEAN_ANOMALY":279.2673,"EPHEMERIS_TYPE":0,"CLASSIFICATION_TYPE":"U","NORAD_CAT_ID":61610,"ELEMENT_SET_NO":999,"REV_AT_EPOCH":6012,"BSTAR":0.0012547676,"MEAN_MOTION_DOT":4.51e-6,"MEAN_MOTION_DDOT":0},{"OBJECT_NAME":"ONEWEB-0706","OBJECT_ID":"2024-188T","EPOCH":"2026-02-20T01:54:54.921312","MEAN_MOTION":13.10373182,"ECCENTRICITY":0.00024764,"INCLINATION":87.8754,"RA_OF_ASC_NODE":59.5932,"ARG_OF_PERICENTER":94.2809,"MEAN_ANOMALY":265.8602,"EPHEMERIS_TYPE":0,"CLASSIFICATION_TYPE":"U","NORAD_CAT_ID":61611,"ELEMENT_SET_NO":999,"REV_AT_EPOCH":6804,"BSTAR":0.0016837094,"MEAN_MOTION_DOT":6.0e-6,"MEAN_MOTION_DDOT":0}]
