ONEWEB-0687             
1 61595U 24188B   26050.98533640 -.00000031  00000+0 -11366-3 0  9995
2 61595  87.9108  29.1649 0002298  74.4424 285.6961 13.17648448 70468
ONEWEB-0688             
1 61596U 24188C   26050.86215439  .00000016  00000+0  82132-5 0  9998
2 61596  87.9107  29.1884 0002132  48.0195 312.1118 13.17649221 70446
ONEWEB-0689             
1 61597U 24188D   26050.99893040 -.00000443  00000+0 -12852-2 0  9998
2 61597  87.8844  44.3426 0002202  85.4606 274.6773 13.11416911 69095
ONEWEB-0690             
1 61598U 24188E   26051.00910089 -.00000525  00000+0 -15174-2 0  9996
2 61598  87.8843  44.3607 0001215  97.2162 262.9104 13.11418735 69271
ONEWEB-0691             
1 61599U 24188F   26051.00401557 -.00000537  00000+0 -15523-2 0  9993
2 61599  87.8848  44.2613 0001922  73.1966 286.9373 13.11418001 69127
ONEWEB-0692             
1 61600U 24188G   26051.02437186 -.00000031  00000+0 -12244-3 0  9992
2 61600  87.8834  44.3926 0002515 104.0070 256.1338 13.11419391 69114
ONEWEB-0693             
1 61601U 24188H   26050.87396755  .00000012  00000+0 -12634-5 0  9994
2 61601  87.9108  29.2079 0001055  84.6020 275.5232 13.17650240 70438
ONEWEB-0695             
1 61602U 24188J   26051.00064257 -.00000543  00000+0 -15672-2 0  9992
2 61602  87.8829  44.3882 0002370  90.4552 269.6848 13.11415228 69102
ONEWEB-0697             
1 61603U 24188K   26051.03285672  .00000339  00000+0  92115-3 0  9991
2 61603  87.8831  44.3712 0002339 103.4405 256.6984 13.11418333 69090
ONEWEB-0698             
1 61604U 24188L   26051.01080132 -.00000455  00000+0 -13200-2 0  9992
2 61604  87.8831  44.3915 0001889 122.8949 237.2361 13.11418743 69115
ONEWEB-0699             
1 61605U 24188M   26051.08312353  .00000610  00000+0  17112-2 0  9990
2 61605  87.8763  59.5895 0002207 106.0987 254.0384 13.10372175 67977
ONEWEB-0700             
1 61606U 24188N   26051.00842122  .00000681  00000+0  19145-2 0  9991
2 61606  87.8777  59.4966 0002494  98.3095 261.8315 13.10372233 67955
ONEWEB-0701             
1 61607U 24188P   26051.02500771  .00000150  00000+0  39276-3 0  9994
2 61607  87.8757  59.6011 0002371 108.3767 251.7619 13.10368664 67968
ONEWEB-0702             
1 61608U 24188Q   26050.98029431  .00000194  00000+0  51180-3 0  9994
2 61608  87.8845  44.2823 0002684 102.1168 258.0261 13.11414028 69122
ONEWEB-0704             
1 61609U 24188R   26051.01341605  .00000610  00000+0  17121-2 0  9999
2 61609  87.8774  59.5774 0002720 101.6149 258.5284 13.10371799 67946
ONEWEB-0705             
1 61610U 24188S   26051.09473988  .00000451  00000+0  12548-2 0  9990
2 61610  87.8759  59.5761 0002947  80.8788 279.2673 13.10369414 60121
ONEWEB-0706             
1 61611U 24188T   26051.07980233  .00000600  00000+0  16837-2 0  9996
2 61611  87.8754  59.5932 0002476  94.2809 265.8602 13.10373182 68046
